NORAD_CAT_ID,OBJECT_NAME,OBJECT_TYPE,EPOCH,MEAN_MOTION,ECCENTRICITY,INCLINATION,RA_OF_ASC_NODE,ARG_OF_PERICENTER,MEAN_ANOMALY,BSTAR,MEAN_MOTION_DOT,MEAN_MOTION_DDOT,TLE_LINE0,TLE_LINE1,TLE_LINE2,SEMIMAJOR_AXIS,PERIOD,APOGEE,PERIGEE,DECAYED
49727.0,STARLINK-3242,PAYLOAD,2022-10-23 08:56:13,15.08846077,0.0002304,53.2157,295.707,40.5016,319.6148,5.084800000000001e-05,5.21e-06,0.0,0 STARLINK-3242,1 49727U 21115D   22296.37237872  .00000521  00000-0  50848-4 0  9996,2 49727  53.2157 295.7070 0002304  40.5016 319.6148 15.08846077 49202,6917.861999999999,95.437,541.321,538.133,0.0
49727.0,STARLINK-3242,PAYLOAD,2022-10-23 16:53:09,15.08835963,0.0002290999999999,53.2167,294.2209,40.878,319.2384,7.809999999999999e-05,9.55e-06,0.0,0 STARLINK-3242,1 49727U 21115D   22296.70358469  .00000955  00000-0  78100-4 0  9991,2 49727  53.2167 294.2209 0002291  40.8780 319.2384 15.08835963 49252,6917.893,95.438,541.3430000000002,538.173,0.0
49727.0,STARLINK-3242,PAYLOAD,2022-10-24 02:25:27,15.08847804,0.0002070999999999,53.2169,292.4365,43.6449,316.4707,6.7445e-05,7.86e-06,0.0,0 STARLINK-3242,1 49727U 21115D   22297.10101604  .00000786  00000-0  67445-4 0  9995,2 49727  53.2169 292.4365 0002071  43.6449 316.4707 15.08847804 50422,6917.857,95.437,541.154,538.289,0.0
49727.0,STARLINK-3242,PAYLOAD,2022-10-24 08:47:01,15.08839881,0.0002401999999999,53.2174,291.25,44.5085,315.6099,-1.3011e-05,-4.95e-06,0.0,0 STARLINK-3242,1 49727U 21115D   22297.36598410 -.00000495  00000-0 -13011-4 0  9997,2 49727  53.2174 291.2500 0002402  44.5085 315.6099 15.08839881 49351,6917.880999999999,95.438,541.4069999999998,538.0840000000002,0.0
49727.0,STARLINK-3242,PAYLOAD,2022-10-24 16:43:57,15.0882334,0.0002335999999999,53.2168,289.7599,41.3281,318.7888,-4.7655e-05,-1.046e-05,0.0,0 STARLINK-3242,1 49727U 21115D   22297.69719728 -.00001046  00000-0 -47655-4 0  9994,2 49727  53.2168 289.7599 0002336  41.3281 318.7888 15.08823340 49402,6917.931,95.439,541.4119999999998,538.18,0.0
49727.0,STARLINK-3242,PAYLOAD,2022-10-25 02:16:16,15.08830896,0.0002171999999999,53.2164,287.9761,40.1236,319.9916,-5.9214e-05,-1.23e-05,0.0,0 STARLINK-3242,1 49727U 21115D   22298.09463460 -.00001230  00000-0 -59214-4 0  9997,2 49727  53.2164 287.9761 0002172  40.1236 319.9916 15.08830896 50573,6917.908,95.438,541.276,538.271,0.0
49727.0,STARLINK-3242,PAYLOAD,2022-10-25 08:37:48,15.08835509,0.000213,53.2163,286.7862,42.0322,318.0833,-6.4148e-05,-1.309e-05,0.0,0 STARLINK-3242,1 49727U 21115D   22298.35959304 -.00001309  00000-0 -64148-4 0  9992,2 49727  53.2163 286.7862 0002130  42.0322 318.0833 15.08835509 49507,6917.894,95.438,541.2330000000002,538.286,0.0
49727.0,STARLINK-3242,PAYLOAD,2022-10-25 16:34:44,15.08834993,0.0002093,53.2168,285.2997,40.9981,319.1169,4.784e-05,4.73e-06,0.0,0 STARLINK-3242,1 49727U 21115D   22298.69079165  .00000473  00000-0  47840-4 0  9996,2 49727  53.2168 285.2997 0002093  40.9981 319.1169 15.08834993 49556,6917.896,95.438,541.2090000000002,538.313,0.0
49727.0,STARLINK-3242,PAYLOAD,2022-10-26 08:28:35,15.08847708,0.0002158,53.2167,282.3261,38.1943,321.9202,0.00010669,1.41e-05,0.0,0 STARLINK-3242,1 49727U 21115D   22299.35318367  .00001410  00000-0  10669-3 0  9990,2 49727  53.2167 282.3261 0002158  38.1943 321.9202 15.08847708 50768,6917.857,95.437,541.215,538.229,0.0
49727.0,STARLINK-3242,PAYLOAD,2022-10-26 16:25:30,15.08844337,0.000206,53.2166,280.839,43.1724,316.9429,0.00022175,3.243e-05,0.0,0 STARLINK-3242,1 49727U 21115D   22299.68438437  .00003243  00000-0  22175-3 0  9998,2 49727  53.2166 280.8390 0002060  43.1724 316.9429 15.08844337 49700,6917.8669999999975,95.437,541.1569999999998,538.307,0.0
49727.0,STARLINK-3242,PAYLOAD,2022-10-27 05:08:36,15.08843825,0.0002169,53.2168,278.4607,43.2651,316.8512,0.00024645,3.637e-05,0.0,0 STARLINK-3242,1 49727U 21115D   22300.21430793  .00003637  00000-0  24645-3 0  9998,2 49727  53.2168 278.4607 0002169  43.2651 316.8512 15.08843825 50891,6917.869000000002,95.437,541.234,538.2330000000002,0.0
49727.0,STARLINK-3242,PAYLOAD,2022-10-27 08:19:22,15.08848133,0.0002177,53.2163,277.8655,42.9163,317.1999,0.00027738,4.13e-05,0.0,0 STARLINK-3242,1 49727U 21115D   22300.34678762  .00004130  00000-0  27738-3 0  9997,2 49727  53.2163 277.8655 0002177  42.9163 317.1999 15.08848133 49804,6917.856,95.437,541.227,538.215,0.0
49727.0,STARLINK-3242,PAYLOAD,2022-10-28 08:10:08,15.08856531,0.0002224,53.2162,273.4054,43.3544,316.7623,0.00019151,2.762e-05,0.0,0 STARLINK-3242,1 49727U 21115D   22301.34037839  .00002762  00000-0  19151-3 0  9991,2 49727  53.2162 273.4054 0002224  43.3544 316.7623 15.08856531 49955,6917.83,95.437,541.2330000000002,538.156,0.0
49727.0,STARLINK-3242,PAYLOAD,2022-10-29 04:50:09,15.08842885,0.0002065,53.2171,269.5405,44.7372,315.3786,4.189e-05,3.79e-06,0.0,0 STARLINK-3242,1 49727U 21115D   22302.20150202  .00000379  00000-0  41890-4 0  9995,2 49727  53.2171 269.5405 0002065  44.7372 315.3786 15.08842885 51199,6917.871999999999,95.437,541.165,538.308,0.0
49727.0,STARLINK-3242,PAYLOAD,2022-10-29 08:00:55,15.08845739,0.0002098,53.2176,268.9464,45.1003,315.016,5.5396e-05,5.94e-06,0.0,0 STARLINK-3242,1 49727U 21115D   22302.33397890  .00000594  00000-0  55396-4 0  9990,2 49727  53.2176 268.9464 0002098  45.1003 315.0160 15.08845739 50108,6917.863,95.437,541.179,538.276,0.0
49727.0,STARLINK-3242,PAYLOAD,2022-10-30 09:27:06,15.08842389,0.0002094,53.2168,264.187,40.803,319.3119,-1.6938e-06,-3.15e-06,0.0,0 STARLINK-3242,1 49727U 21115D   22303.39382098 -.00000315  00000-0 -16938-5 0  9994,2 49727  53.2168 264.1870 0002094  40.8030 319.3119 15.08842389 50262,6917.873000000001,95.437,541.187,538.289,0.0
49727.0,STARLINK-3242,PAYLOAD,2022-10-30 14:13:15,15.08844281,0.0002098,53.217,263.2947,41.3644,318.7506,-2.6596e-05,-7.12e-06,0.0,0 STARLINK-3242,1 49727U 21115D   22303.59254006 -.00000712  00000-0 -26596-4 0  9994,2 49727  53.2170 263.2947 0002098  41.3644 318.7506 15.08844281 50290,6917.8669999999975,95.437,541.184,538.281,0.0
49727.0,STARLINK-3242,PAYLOAD,2022-10-31 07:42:30,15.08836361,0.0002191999999999,53.2178,260.0266,38.6701,321.4448,8.0547e-05,9.94e-06,0.0,0 STARLINK-3242,1 49727U 21115D   22304.32118533  .00000994  00000-0  80547-4 0  9996,2 49727  53.2178 260.0266 0002192  38.6701 321.4448 15.08836361 50404,6917.892,95.438,541.273,538.24,0.0
49727.0,STARLINK-3242,PAYLOAD,2022-10-31 14:04:03,15.08837105,0.0002131999999999,53.2172,258.8346,41.5164,318.599,1.7702e-05,-7e-08,0.0,0 STARLINK-3242,1 49727U 21115D   22304.58614620 -.00000007  00000-0  17702-4 0  9991,2 49727  53.2172 258.8346 0002132  41.5164 318.5990 15.08837105 50442,6917.889,95.438,541.229,538.279,0.0
49727.0,STARLINK-3242,PAYLOAD,2022-11-01 05:57:54,15.08841898,0.0002181,53.2173,255.8607,43.0158,317.1005,0.00014454,2.013e-05,0.0,0 STARLINK-3242,1 49727U 21115D   22305.24854452  .00002013  00000-0  14454-3 0  9992,2 49727  53.2173 255.8607 0002181  43.0158 317.1005 15.08841898 50541,6917.875,95.437,541.248,538.231,0.0
49727.0,STARLINK-3242,PAYLOAD,2022-11-01 20:16:22,15.08841702,0.0001986,53.2171,253.18400000000003,43.11600000000001,316.9987,9.6071e-05,1.241e-05,0.0,0 STARLINK-3242,1 49727U 21115D   22305.84470581  .00001241  00000-0  96071-4 0  9993,2 49727  53.2171 253.1840 0001986  43.1160 316.9987 15.08841702 51748,6917.875,95.437,541.114,538.366,0.0
49727.0,STARLINK-3242,PAYLOAD,2022-11-02 02:37:54,15.08854003,0.0001779,53.2173,251.9956,53.2804,306.8351,0.00010365,1.362e-05,0.0,0 STARLINK-3242,1 49727U 21115D   22306.10965667  .00001362  00000-0  10365-3 0  9992,2 49727  53.2173 251.9956 0001779  53.2804 306.8351 15.08854003 51786,6917.8380000000025,95.437,540.933,538.472,0.0
49727.0,STARLINK-3242,PAYLOAD,2022-11-02 05:48:41,15.08846843,0.0001949,53.217,251.4011,41.6062,318.5078,7.5282e-05,9.1e-06,0.0,0 STARLINK-3242,1 49727U 21115D   22306.24214175  .00000910  00000-0  75282-4 0  9996,2 49727  53.2170 251.4011 0001949  41.6062 318.5078 15.08846843 51808,6917.859,95.437,541.073,538.376,0.0
49727.0,STARLINK-3242,PAYLOAD,2022-11-02 20:07:10,15.08831084,0.0002334999999999,53.2179,248.7241,45.9438,314.1746,2.9118e-05,1.75e-06,0.0,0 STARLINK-3242,1 49727U 21115D   22306.83831707  .00000175  00000-0  29118-4 0  9997,2 49727  53.2179 248.7241 0002335  45.9438 314.1746 15.08831084 51899,6917.908,95.438,541.388,538.1569999999998,0.0
49727.0,STARLINK-3242,PAYLOAD,2022-11-03 02:28:42,15.08841599,0.0001996,53.2168,247.5335,46.6491,313.4667,3.4978e-05,2.69e-06,0.0,0 STARLINK-3242,1 49727U 21115D   22307.10327130  .00000269  00000-0  34978-4 0  9992,2 49727  53.2168 247.5335 0001996  46.6491 313.4667 15.08841599 51938,6917.876,95.437,541.121,538.36,0.0
49727.0,STARLINK-3242,PAYLOAD,2022-11-03 05:39:28,15.08846127,0.0002069,53.2171,246.9389,48.1216,311.9953,7.9805e-05,9.82e-06,0.0,0 STARLINK-3242,1 49727U 21115D   22307.23574763  .00000982  00000-0  79805-4 0  9992,2 49727  53.2171 246.9389 0002069  48.1216 311.9953 15.08846127 50840,6917.861999999999,95.437,541.158,538.295,0.0
49727.0,STARLINK-3242,PAYLOAD,2022-11-04 02:19:28,15.08857289,0.0001983,53.216,243.0736,47.0843,313.0315,0.00033216,5.005e-05,0.0,0 STARLINK-3242,1 49727U 21115D   22308.09686002  .00005005  00000-0  33216-3 0  9993,2 49727  53.2160 243.0736 0001983  47.0843 313.0315 15.08857289 52084,6917.828,95.436,541.064,538.321,0.0
49727.0,STARLINK-3242,PAYLOAD,2022-11-05 02:10:16,15.08832528,0.0001969,53.2161,238.6133,41.161,318.9531,6.9172e-05,8.13e-06,0.0,0 STARLINK-3242,1 49727U 21115D   22309.09046635  .00000813  00000-0  69172-4 0  9999,2 49727  53.2161 238.6133 0001969  41.1610 318.9531 15.08832528 52237,6917.903,95.438,541.13,538.406,0.0
49727.0,STARLINK-3242,PAYLOAD,2022-11-05 06:56:26,15.08829738,0.0001988,53.2166,237.7211,42.6678,317.4468,-3.17e-05,-7.93e-06,0.0,0 STARLINK-3242,1 49727U 21115D   22309.28919137 -.00000793  00000-0 -31700-4 0  9991,2 49727  53.2166 237.7211 0001988  42.6678 317.4468 15.08829738 51152,6917.9119999999975,95.438,541.1519999999998,538.401,0.0
